[{"OBJECT_NAME":"STARLINK-32580","OBJECT_ID":"2024-217U","EPOCH":"2026-03-09T12:36:17.560800","MEAN_MOTION":15.30199409,"ECCENTRICITY":6.749e-5,"INCLINATION":53.158,"RA_OF_ASC_NODE":182.0554,"ARG_OF_PERICENTER":76.1585,"MEAN_ANOMALY":283.9491,"EPHEMERIS_TYPE":0,"CLASSIFICATION_TYPE":"U","NORAD_CAT_ID":62075,"ELEMENT_SET_NO":999,"REV_AT_EPOCH":7357,"BSTAR":0.0010673044,"MEAN_MOTION_DOT":0.00031384,"MEAN_MOTION_DDOT":0},{"OBJECT_NAME":"HERMES-3","OBJECT_ID":"2025-052BR","EPOCH":"2026-03-09T22:30:01.073952","MEAN_MOTION":15.30039786,"ECCENTRICITY":0.00079928,"INCLINATION":97.3987,"RA_OF_ASC_NODE":324.6131,"ARG_OF_PERICENTER":112.9583,"MEAN_ANOMALY":247.2502,"EPHEMERIS_TYPE":0,"CLASSIFICATION_TYPE":"U","NORAD_CAT_ID":63835,"ELEMENT_SET_NO":999,"REV_AT_EPOCH":5486,"BSTAR":0.0006995793,"MEAN_MOTION_DOT":0.00020316,"MEAN_MOTION_DDOT":0}]
